QIANFAN-113             
1 68640U 26075E   26197.25384180  .00000080  00000+0  10533-3 0  9992
2 68640  88.9920 318.0291 0001995 106.9847 253.1523 13.51018554 13733
QIANFAN-114             
1 68641U 26075F   26197.26203573  .00000079  00000+0  10367-3 0  9993
2 68641  88.9915 318.0461 0002061 104.1490 255.9891 13.51017332 13726
QIANFAN-115             
1 68642U 26075G   26197.21669706  .00000089  00000+0  11966-3 0  9990
2 68642  88.9915 318.0580 0002193 107.1316 253.0075 13.51014065 13717
QIANFAN-116             
1 68643U 26075H   26197.27841949  .00000079  00000+0  10312-3 0  9991
2 68643  88.9908 318.0097 0001979 114.2148 245.9210 13.51014631 13738
QIANFAN-117             
1 68644U 26075J   26197.26606545  .00000021  00000+0  14230-4 0  9993
2 68644  88.9912 318.0279 0002142 111.0759 249.0622 13.51012577 13731
QIANFAN-118             
1 68645U 26075K   26197.29899251  .00000085  00000+0  11364-3 0  9999
2 68645  88.9918 318.0340 0001969 101.8949 258.2423 13.51014402 13731
QIANFAN-119             
1 68646U 26075L   26197.27434749  .00000070  00000+0  90455-4 0  9998
2 68646  88.9918 318.0321 0002252 112.4503 247.6887 13.51020691 13734
QIANFAN-120             
1 68647U 26075M   26197.28680362  .00000083  00000+0  11002-3 0  9998
2 68647  88.9919 318.0163 0002408 112.5046 247.6360 13.51021143 13746
QIANFAN-121             
1 68648U 26075N   26197.31136959  .00000073  00000+0  94072-4 0  9999
2 68648  88.9917 318.0181 0002041 102.3944 257.7435 13.51013234 13749
QIANFAN-122             
1 68649U 26075P   26197.22919541  .00000072  00000+0  93431-4 0  9993
2 68649  88.9916 318.0243 0002171 112.8536 247.2845 13.51016887 13729
QIANFAN-123             
1 68650U 26075Q   26197.27038333  .00000065  00000+0  82628-4 0  9999
2 68650  88.9913 318.0092 0002291 117.6595 242.4789 13.51015269 13717
QIANFAN-124             
1 68651U 26075R   26197.22097247  .00000078  00000+0  10246-3 0  9994
2 68651  88.9915 318.0240 0002186 114.8246 245.3133 13.51016452 13732
QIANFAN-125             
1 68652U 26075S   26197.30726176  .00000074  00000+0  95261-4 0  9991
2 68652  88.9915 318.0173 0002013 102.7233 257.4143 13.51013454 13744
QIANFAN-126             
1 68653U 26075T   26197.31556398  .00000070  00000+0  89810-4 0  9999
2 68653  88.9919 317.9832 0002303 117.0901 243.0486 13.51018506 13768
QIANFAN-127             
1 69073U 26104A   26197.27359166  .00000083  00000+0  97619-4 0  9998
2 69073  88.9914 338.4988 0009178   3.2949 356.8265 13.57855935  9084
QIANFAN-128             
1 69074U 26104B   26197.26028118  .00000001  00000+0 -15751-4 0  9996
2 69074  88.9896 338.5331 0009846   6.3957 353.7321 13.55518343  9066
