{"fetched_at":"2026-07-16T17:46:08.983Z","source":"https://celestrak.org/NORAD/elements/gp.php?GROUP=qianfan&FORMAT=JSON","constellation":"qianfan","records":[{"OBJECT_NAME":"QIANFAN-113","OBJECT_ID":"2026-075E","EPOCH":"2026-07-16T06:05:31.931520","CLASSIFICATION_TYPE":"U","MEAN_MOTION":13.51018554,"ECCENTRICITY":0.00019954,"INCLINATION":88.992,"RA_OF_ASC_NODE":318.0291,"ARG_OF_PERICENTER":106.9847,"MEAN_ANOMALY":253.1523,"EPHEMERIS_TYPE":0,"NORAD_CAT_ID":68640,"ELEMENT_SET_NO":999,"REV_AT_EPOCH":1373,"BSTAR":0.00010532945,"MEAN_MOTION_DOT":8e-7,"MEAN_MOTION_DDOT":0},{"OBJECT_NAME":"QIANFAN-114","OBJECT_ID":"2026-075F","EPOCH":"2026-07-16T06:17:19.887072","CLASSIFICATION_TYPE":"U","MEAN_MOTION":13.51017332,"ECCENTRICITY":0.00020613,"INCLINATION":88.9915,"RA_OF_ASC_NODE":318.0461,"ARG_OF_PERICENTER":104.149,"MEAN_ANOMALY":255.9891,"EPHEMERIS_TYPE":0,"NORAD_CAT_ID":68641,"ELEMENT_SET_NO":999,"REV_AT_EPOCH":1372,"BSTAR":0.00010366689,"MEAN_MOTION_DOT":7.9e-7,"MEAN_MOTION_DDOT":0},{"OBJECT_NAME":"QIANFAN-115","OBJECT_ID":"2026-075G","EPOCH":"2026-07-16T05:12:02.625984","CLASSIFICATION_TYPE":"U","MEAN_MOTION":13.51014065,"ECCENTRICITY":0.00021939,"INCLINATION":88.9915,"RA_OF_ASC_NODE":318.058,"ARG_OF_PERICENTER":107.1316,"MEAN_ANOMALY":253.0075,"EPHEMERIS_TYPE":0,"NORAD_CAT_ID":68642,"ELEMENT_SET_NO":999,"REV_AT_EPOCH":1371,"BSTAR":0.00011965563,"MEAN_MOTION_DOT":8.9e-7,"MEAN_MOTION_DDOT":0},{"OBJECT_NAME":"QIANFAN-116","OBJECT_ID":"2026-075H","EPOCH":"2026-07-16T06:40:55.443936","CLASSIFICATION_TYPE":"U","MEAN_MOTION":13.51014631,"ECCENTRICITY":0.00019793,"INCLINATION":88.9908,"RA_OF_ASC_NODE":318.0097,"ARG_OF_PERICENTER":114.2148,"MEAN_ANOMALY":245.921,"EPHEMERIS_TYPE":0,"NORAD_CAT_ID":68643,"ELEMENT_SET_NO":999,"REV_AT_EPOCH":1373,"BSTAR":0.00010311886,"MEAN_MOTION_DOT":7.9e-7,"MEAN_MOTION_DDOT":0},{"OBJECT_NAME":"QIANFAN-117","OBJECT_ID":"2026-075J","EPOCH":"2026-07-16T06:23:08.054880","CLASSIFICATION_TYPE":"U","MEAN_MOTION":13.51012577,"ECCENTRICITY":0.00021425,"INCLINATION":88.9912,"RA_OF_ASC_NODE":318.0279,"ARG_OF_PERICENTER":111.0759,"MEAN_ANOMALY":249.0622,"EPHEMERIS_TYPE":0,"NORAD_CAT_ID":68644,"ELEMENT_SET_NO":999,"REV_AT_EPOCH":1373,"BSTAR":0.000014229573,"MEAN_MOTION_DOT":2.1e-7,"MEAN_MOTION_DDOT":0},{"OBJECT_NAME":"QIANFAN-118","OBJECT_ID":"2026-075K","EPOCH":"2026-07-16T07:10:32.952864","CLASSIFICATION_TYPE":"U","MEAN_MOTION":13.51014402,"ECCENTRICITY":0.00019696,"INCLINATION":88.9918,"RA_OF_ASC_NODE":318.034,"ARG_OF_PERICENTER":101.8949,"MEAN_ANOMALY":258.2423,"EPHEMERIS_TYPE":0,"NORAD_CAT_ID":68645,"ELEMENT_SET_NO":999,"REV_AT_EPOCH":1373,"BSTAR":0.00011363786,"MEAN_MOTION_DOT":8.5e-7,"MEAN_MOTION_DDOT":0},{"OBJECT_NAME":"QIANFAN-119","OBJECT_ID":"2026-075L","EPOCH":"2026-07-16T06:35:03.623136","CLASSIFICATION_TYPE":"U","MEAN_MOTION":13.51020691,"ECCENTRICITY":0.00022529,"INCLINATION":88.9918,"RA_OF_ASC_NODE":318.0321,"ARG_OF_PERICENTER":112.4503,"MEAN_ANOMALY":247.6887,"EPHEMERIS_TYPE":0,"NORAD_CAT_ID":68646,"ELEMENT_SET_NO":999,"REV_AT_EPOCH":1373,"BSTAR":0.000090455224,"MEAN_MOTION_DOT":7e-7,"MEAN_MOTION_DDOT":0},{"OBJECT_NAME":"QIANFAN-120","OBJECT_ID":"2026-075M","EPOCH":"2026-07-16T06:52:59.832768","CLASSIFICATION_TYPE":"U","MEAN_MOTION":13.51021143,"ECCENTRICITY":0.00024083,"INCLINATION":88.9919,"RA_OF_ASC_NODE":318.0163,"ARG_OF_PERICENTER":112.5046,"MEAN_ANOMALY":247.636,"EPHEMERIS_TYPE":0,"NORAD_CAT_ID":68647,"ELEMENT_SET_NO":999,"REV_AT_EPOCH":1374,"BSTAR":0.00011002477,"MEAN_MOTION_DOT":8.3e-7,"MEAN_MOTION_DDOT":0},{"OBJECT_NAME":"QIANFAN-121","OBJECT_ID":"2026-075N","EPOCH":"2026-07-16T07:28:22.332576","CLASSIFICATION_TYPE":"U","MEAN_MOTION":13.51013234,"ECCENTRICITY":0.00020418,"INCLINATION":88.9917,"RA_OF_ASC_NODE":318.0181,"ARG_OF_PERICENTER":102.3944,"MEAN_ANOMALY":257.7435,"EPHEMERIS_TYPE":0,"NORAD_CAT_ID":68648,"ELEMENT_SET_NO":999,"REV_AT_EPOCH":1374,"BSTAR":0.000094071703,"MEAN_MOTION_DOT":7.3e-7,"MEAN_MOTION_DDOT":0},{"OBJECT_NAME":"QIANFAN-122","OBJECT_ID":"2026-075P","EPOCH":"2026-07-16T05:30:02.483424","CLASSIFICATION_TYPE":"U","MEAN_MOTION":13.51016887,"ECCENTRICITY":0.00021716,"INCLINATION":88.9916,"RA_OF_ASC_NODE":318.0243,"ARG_OF_PERICENTER":112.8536,"MEAN_ANOMALY":247.2845,"EPHEMERIS_TYPE":0,"NORAD_CAT_ID":68649,"ELEMENT_SET_NO":999,"REV_AT_EPOCH":1372,"BSTAR":0.000093430852,"MEAN_MOTION_DOT":7.2e-7,"MEAN_MOTION_DDOT":0},{"OBJECT_NAME":"QIANFAN-123","OBJECT_ID":"2026-075Q","EPOCH":"2026-07-16T06:29:21.119712","CLASSIFICATION_TYPE":"U","MEAN_MOTION":13.51015269,"ECCENTRICITY":0.00022912,"INCLINATION":88.9913,"RA_OF_ASC_NODE":318.0092,"ARG_OF_PERICENTER":117.6595,"MEAN_ANOMALY":242.4789,"EPHEMERIS_TYPE":0,"NORAD_CAT_ID":68650,"ELEMENT_SET_NO":999,"REV_AT_EPOCH":1371,"BSTAR":0.000082627713,"MEAN_MOTION_DOT":6.5e-7,"MEAN_MOTION_DDOT":0},{"OBJECT_NAME":"QIANFAN-124","OBJECT_ID":"2026-075R","EPOCH":"2026-07-16T05:18:12.021408","CLASSIFICATION_TYPE":"U","MEAN_MOTION":13.51016452,"ECCENTRICITY":0.00021867,"INCLINATION":88.9915,"RA_OF_ASC_NODE":318.024,"ARG_OF_PERICENTER":114.8246,"MEAN_ANOMALY":245.3133,"EPHEMERIS_TYPE":0,"NORAD_CAT_ID":68651,"ELEMENT_SET_NO":999,"REV_AT_EPOCH":1373,"BSTAR":0.00010246182,"MEAN_MOTION_DOT":7.8e-7,"MEAN_MOTION_DDOT":0},{"OBJECT_NAME":"QIANFAN-125","OBJECT_ID":"2026-075S","EPOCH":"2026-07-16T07:22:27.416064","CLASSIFICATION_TYPE":"U","MEAN_MOTION":13.51013454,"ECCENTRICITY":0.00020135,"INCLINATION":88.9915,"RA_OF_ASC_NODE":318.0173,"ARG_OF_PERICENTER":102.7233,"MEAN_ANOMALY":257.4143,"EPHEMERIS_TYPE":0,"NORAD_CAT_ID":68652,"ELEMENT_SET_NO":999,"REV_AT_EPOCH":1374,"BSTAR":0.000095261484,"MEAN_MOTION_DOT":7.4e-7,"MEAN_MOTION_DDOT":0},{"OBJECT_NAME":"QIANFAN-126","OBJECT_ID":"2026-075T","EPOCH":"2026-07-16T07:34:24.727872","CLASSIFICATION_TYPE":"U","MEAN_MOTION":13.51018506,"ECCENTRICITY":0.00023033,"INCLINATION":88.9919,"RA_OF_ASC_NODE":317.9832,"ARG_OF_PERICENTER":117.0901,"MEAN_ANOMALY":243.0486,"EPHEMERIS_TYPE":0,"NORAD_CAT_ID":68653,"ELEMENT_SET_NO":999,"REV_AT_EPOCH":1376,"BSTAR":0.00008980982,"MEAN_MOTION_DOT":7e-7,"MEAN_MOTION_DDOT":0},{"OBJECT_NAME":"QIANFAN-127","OBJECT_ID":"2026-104A","EPOCH":"2026-07-16T06:33:58.319424","CLASSIFICATION_TYPE":"U","MEAN_MOTION":13.57855935,"ECCENTRICITY":0.00091788,"INCLINATION":88.9914,"RA_OF_ASC_NODE":338.4988,"ARG_OF_PERICENTER":3.2949,"MEAN_ANOMALY":356.8265,"EPHEMERIS_TYPE":0,"NORAD_CAT_ID":69073,"ELEMENT_SET_NO":999,"REV_AT_EPOCH":908,"BSTAR":0.000097618619,"MEAN_MOTION_DOT":8.3e-7,"MEAN_MOTION_DDOT":0},{"OBJECT_NAME":"QIANFAN-128","OBJECT_ID":"2026-104B","EPOCH":"2026-07-16T06:14:48.293952","CLASSIFICATION_TYPE":"U","MEAN_MOTION":13.55518343,"ECCENTRICITY":0.0009846,"INCLINATION":88.9896,"RA_OF_ASC_NODE":338.5331,"ARG_OF_PERICENTER":6.3957,"MEAN_ANOMALY":353.7321,"EPHEMERIS_TYPE":0,"NORAD_CAT_ID":69074,"ELEMENT_SET_NO":999,"REV_AT_EPOCH":906,"BSTAR":-0.000015750715,"MEAN_MOTION_DOT":1e-8,"MEAN_MOTION_DDOT":0}]}
